O3B FM20                
1 44112U 19020A   26065.06844034 -.00000026  00000+0  00000+0 0  9999
2 44112   0.0518 359.6891 0002801 333.4783  26.8126  5.00115498126413
O3B FM19                
1 44113U 19020B   26058.89895873 -.00000027  00000+0  00000+0 0  9991
2 44113   0.0602 347.5601 0004795 353.9797  18.4356  5.00116325125971
O3B FM17                
1 44114U 19020C   26064.97572628 -.00000026  00000+0  00000+0 0  9997
2 44114   0.0392 340.3096 0002683 359.5443  20.1300  5.00115470126364
O3B FM18                
1 44115U 19020D   26062.52332968 -.00000028  00000+0  00000+0 0  9990
2 44115   0.0519   0.0145 0002751 341.7220  18.2467  5.00115242126362
SALSAT                  
1 46495U 20068K   26064.94066432  .00011056  00000+0  40601-3 0  9992
2 46495  97.8854  61.8531 0008538 312.5830  47.4688 15.28092628299584
O3B MPOWER F1           
1 54755U 22174A   26065.07500121 -.00000026  00000+0  00000+0 0  9994
2 54755   0.0639 350.8676 0005191  10.6556 134.0526  5.00103109 60208
O3B MPOWER F2           
1 54756U 22174B   26062.53384886 -.00000028  00000+0  00000+0 0  9993
2 54756   0.1272 326.2177 0046125  76.0907 318.0389  5.00690325 60150
O3B MPOWER F4           
1 56367U 23059A   26048.24074746 -.00000015  00000+0  00000+0 0  9995
2 56367   0.0593   7.9241 0006460 334.3658  17.6828  5.00119607 52601
